{"type": "FeatureCollection", "features": [ {"type": "Feature", "properties": {"norad_id": 54234, "name": "NOAA 21 (JPSS-2)", "group": "weather", "lat": 63.33156912575636, "lon": -87.68640878696101, "alt_km": 819.7078300986941, "timestamp": "2025-12-19T22:41:52.021728+00:00", "meta": {"OBJECT_NAME": "NOAA 21 (JPSS-2)", "OBJECT_ID": "2022-150A", "EPOCH": "2025-12-19T19:00:39.053952", "MEAN_MOTION": 14.19525995, "ECCENTRICITY": 0.0001915, "INCLINATION": 98.7471, "RA_OF_ASC_NODE": 290.0126, "ARG_OF_PERICENTER": 24.0229, "MEAN_ANOMALY": 336.1036, "EPHEMERIS_TYPE": 0, "CLASSIFICATION_TYPE": "U", "NORAD_CAT_ID": 54234, "ELEMENT_SET_NO": 999, "REV_AT_EPOCH": 16109, "BSTAR": 4.1691e-05, "MEAN_MOTION_DOT": 4.4e-07, "MEAN_MOTION_DDOT": 0}, "tle": {"line1": "1 54234U 22150A   25353.79211868  .00000044  00000+0  41691-4 0  9990", "line2": "2 54234  98.7471 290.0126 0001915  24.0229 336.1036 14.19525995161090"}}, "geometry": {"type": "Point", "coordinates": [-87.68640878696101, 63.33156912575636]}}, {"type": "Feature", "properties": {"norad_id": 54743, "name": "METEOSAT-12 (MTG-I1)", "group": "weather", "lat": 0.510440225806615, "lon": 68.94075649626488, "alt_km": 35792.427267107916, "timestamp": "2025-12-19T22:41:52.021746+00:00", "meta": {"OBJECT_NAME": "METEOSAT-12 (MTG-I1)", "OBJECT_ID": "2022-170C", "EPOCH": "2025-12-19T06:24:51.136128", "MEAN_MOTION": 1.00270426, "ECCENTRICITY": 0.0001481, "INCLINATION": 0.6935, "RA_OF_ASC_NODE": 24.6802, "ARG_OF_PERICENTER": 239.4026, "MEAN_ANOMALY": 279.9464, "EPHEMERIS_TYPE": 0, "CLASSIFICATION_TYPE": "U", "NORAD_CAT_ID": 54743, "ELEMENT_SET_NO": 999, "REV_AT_EPOCH": 1117, "BSTAR": 0, "MEAN_MOTION_DOT": 1.7e-07, "MEAN_MOTION_DDOT": 0}, "tle": {"line1": "1 54743U 22170C   25353.26725852  .00000017  00000+0  00000+0 0  9996", "line2": "2 54743   0.6935  24.6802 0001481 239.4026 279.9464  1.00270426 11173"}}, "geometry": {"type": "Point", "coordinates": [68.94075649626488, 0.510440225806615]}}, {"type": "Feature", "properties": {"norad_id": 55973, "name": "TIANMU-1 03", "group": "weather", "lat": -75.25908340489815, "lon": -53.29469619948828, "alt_km": 452.37190427517726, "timestamp": "2025-12-19T22:41:52.021764+00:00", "meta": {"OBJECT_NAME": "TIANMU-1 03", "OBJECT_ID": "2023-039A", "EPOCH": "2025-12-19T18:28:05.280384", "MEAN_MOTION": 15.41117594, "ECCENTRICITY": 0.0004102, "INCLINATION": 97.5102, "RA_OF_ASC_NODE": 156.618, "ARG_OF_PERICENTER": 40.8644, "MEAN_ANOMALY": 319.2909, "EPHEMERIS_TYPE": 0, "CLASSIFICATION_TYPE": "U", "NORAD_CAT_ID": 55973, "ELEMENT_SET_NO": 999, "REV_AT_EPOCH": 15314, "BSTAR": 0.00026572, "MEAN_MOTION_DOT": 0.00010917, "MEAN_MOTION_DDOT": 0}, "tle": {"line1": "1 55973U 23039A   25353.76950556  .00010917  00000+0  26572-3 0  9999", "line2": "2 55973  97.5102 156.6180 0004102  40.8644 319.2909 15.41117594153140"}}, "geometry": {"type": "Point", "coordinates": [-53.29469619948828, -75.25908340489815]}}, {"type": "Feature", "properties": {"norad_id": 55974, "name": "TIANMU-1 04", "group": "weather", "lat": 19.719025993397903, "lon": 153.27941870195693, "alt_km": 438.8977364206403, "timestamp": "2025-12-19T22:41:52.021780+00:00", "meta": {"OBJECT_NAME": "TIANMU-1 04", "OBJECT_ID": "2023-039B", "EPOCH": "2025-12-19T17:56:16.338912", "MEAN_MOTION": 15.41457885, "ECCENTRICITY": 0.0004722, "INCLINATION": 97.5035, "RA_OF_ASC_NODE": 155.7835, "ARG_OF_PERICENTER": 35.1277, "MEAN_ANOMALY": 325.028, "EPHEMERIS_TYPE": 0, "CLASSIFICATION_TYPE": "U", "NORAD_CAT_ID": 55974, "ELEMENT_SET_NO": 999, "REV_AT_EPOCH": 15314, "BSTAR": 0.00026927, "MEAN_MOTION_DOT": 0.00011191, "MEAN_MOTION_DDOT": 0}, "tle": {"line1": "1 55974U 23039B   25353.74741133  .00011191  00000+0  26927-3 0  9996", "line2": "2 55974  97.5035 155.7835 0004722  35.1277 325.0280 15.41457885153147"}}, "geometry": {"type": "Point", "coordinates": [153.27941870195693, 19.719025993397903]}}, {"type": "Feature", "properties": {"norad_id": 55975, "name": "TIANMU-1 05", "group": "weather", "lat": 41.50017623024738, "lon": 149.77888725380808, "alt_km": 436.946825510121, "timestamp": "2025-12-19T22:41:52.021799+00:00", "meta": {"OBJECT_NAME": "TIANMU-1 05", "OBJECT_ID": "2023-039C", "EPOCH": "2025-12-19T17:50:29.126688", "MEAN_MOTION": 15.41074474, "ECCENTRICITY": 0.0004156, "INCLINATION": 97.5082, "RA_OF_ASC_NODE": 156.272, "ARG_OF_PERICENTER": 59.1615, "MEAN_ANOMALY": 301.0039, "EPHEMERIS_TYPE": 0, "CLASSIFICATION_TYPE": "U", "NORAD_CAT_ID": 55975, "ELEMENT_SET_NO": 999, "REV_AT_EPOCH": 15312, "BSTAR": 0.00027258, "MEAN_MOTION_DOT": 0.00011185, "MEAN_MOTION_DDOT": 0}, "tle": {"line1": "1 55975U 23039C   25353.74339267  .00011185  00000+0  27258-3 0  9999", "line2": "2 55975  97.5082 156.2720 0004156  59.1615 301.0039 15.41074474153125"}}, "geometry": {"type": "Point", "coordinates": [149.77888725380808, 41.50017623024738]}}, {"type": "Feature", "properties": {"norad_id": 55976, "name": "TIANMU-1 06", "group": "weather", "lat": 9.076663767767457, "lon": 155.74343989850172, "alt_km": 441.29962572353816, "timestamp": "2025-12-19T22:41:52.021816+00:00", "meta": {"OBJECT_NAME": "TIANMU-1 06", "OBJECT_ID": "2023-039D", "EPOCH": "2025-12-19T17:59:03.939360", "MEAN_MOTION": 15.41509609, "ECCENTRICITY": 0.0004446, "INCLINATION": 97.5093, "RA_OF_ASC_NODE": 156.749, "ARG_OF_PERICENTER": 53.6063, "MEAN_ANOMALY": 306.5593, "EPHEMERIS_TYPE": 0, "CLASSIFICATION_TYPE": "U", "NORAD_CAT_ID": 55976, "ELEMENT_SET_NO": 999, "REV_AT_EPOCH": 15314, "BSTAR": 0.00026987, "MEAN_MOTION_DOT": 0.00011235, "MEAN_MOTION_DDOT": 0}, "tle": {"line1": "1 55976U 23039D   25353.74935115  .00011235  00000+0  26987-3 0  9998", "line2": "2 55976  97.5093 156.7490 0004446  53.6063 306.5593 15.41509609153145"}}, "geometry": {"type": "Point", "coordinates": [155.74343989850172, 9.076663767767457]}}, {"type": "Feature", "properties": {"norad_id": 56232, "name": "FENGYUN 3G", "group": "weather", "lat": 46.78603748354215, "lon": -53.12562126983096, "alt_km": 396.45521506892237, "timestamp": "2025-12-19T22:41:52.021832+00:00", "meta": {"OBJECT_NAME": "FENGYUN 3G", "OBJECT_ID": "2023-055A", "EPOCH": "2025-12-19T17:36:21.504672", "MEAN_MOTION": 15.54041911, "ECCENTRICITY": 0.0009364, "INCLINATION": 49.9918, "RA_OF_ASC_NODE": 191.3527, "ARG_OF_PERICENTER": 180.0661, "MEAN_ANOMALY": 180.0307, "EPHEMERIS_TYPE": 0, "CLASSIFICATION_TYPE": "U", "NORAD_CAT_ID": 56232, "ELEMENT_SET_NO": 999, "REV_AT_EPOCH": 15211, "BSTAR": 0.00032368, "MEAN_MOTION_DOT": 0.00021005, "MEAN_MOTION_DDOT": 0}, "tle": {"line1": "1 56232U 23055A   25353.73358223  .00021005  00000+0  32368-3 0  9996", "line2": "2 56232  49.9918 191.3527 0009364 180.0661 180.0307 15.54041911152112"}}, "geometry": {"type": "Point", "coordinates": [-53.12562126983096, 46.78603748354215]}}, {"type": "Feature", "properties": {"norad_id": 57166, "name": "METEOR-M2 3", "group": "weather", "lat": 81.10695887055459, "lon": -28.895202771409117, "alt_km": 804.768772444625, "timestamp": "2025-12-19T22:41:52.021851+00:00", "meta": {"OBJECT_NAME": "METEOR-M2 3", "OBJECT_ID": "2023-091A", "EPOCH": "2025-12-19T18:54:50.796288", "MEAN_MOTION": 14.24026888, "ECCENTRICITY": 0.0003504, "INCLINATION": 98.6368, "RA_OF_ASC_NODE": 47.2041, "ARG_OF_PERICENTER": 347.8957, "MEAN_ANOMALY": 12.2137, "EPHEMERIS_TYPE": 0, "CLASSIFICATION_TYPE": "U", "NORAD_CAT_ID": 57166, "ELEMENT_SET_NO": 999, "REV_AT_EPOCH": 12898, "BSTAR": 2.4226e-05, "MEAN_MOTION_DOT": 1.2e-07, "MEAN_MOTION_DDOT": 0}, "tle": {"line1": "1 57166U 23091A   25353.78808792  .00000012  00000+0  24226-4 0  9999", "line2": "2 57166  98.6368  47.2041 0003504 347.8957  12.2137 14.24026888128987"}}, "geometry": {"type": "Point", "coordinates": [-28.895202771409117, 81.10695887055459]}}, {"type": "Feature", "properties": {"norad_id": 57399, "name": "TIANMU-1 07", "group": "weather", "lat": 82.66840977007323, "lon": -52.355150935840996, "alt_km": 470.5896366906918, "timestamp": "2025-12-19T22:41:52.021867+00:00", "meta": {"OBJECT_NAME": "TIANMU-1 07", "OBJECT_ID": "2023-101A", "EPOCH": "2025-12-19T17:35:16.480032", "MEAN_MOTION": 15.28165715, "ECCENTRICITY": 0.0005321, "INCLINATION": 97.2869, "RA_OF_ASC_NODE": 43.4287, "ARG_OF_PERICENTER": 63.7458, "MEAN_ANOMALY": 296.4328, "EPHEMERIS_TYPE": 0, "CLASSIFICATION_TYPE": "U", "NORAD_CAT_ID": 57399, "ELEMENT_SET_NO": 999, "REV_AT_EPOCH": 13422, "BSTAR": 0.00018991, "MEAN_MOTION_DOT": 5.142e-05, "MEAN_MOTION_DDOT": 0}, "tle": {"line1": "1 57399U 23101A   25353.73282963  .00005142  00000+0  18991-3 0  9990", "line2": "2 57399  97.2869  43.4287 0005321  63.7458 296.4328 15.28165715134225"}}, "geometry": {"type": "Point", "coordinates": [-52.355150935840996, 82.66840977007323]}}, {"type": "Feature", "properties": {"norad_id": 57400, "name": "TIANMU-1 08", "group": "weather", "lat": -82.44586976949233, "lon": 118.17851430679703, "alt_km": 493.1205257143665, "timestamp": "2025-12-19T22:41:52.021883+00:00", "meta": {"OBJECT_NAME": "TIANMU-1 08", "OBJECT_ID": "2023-101B", "EPOCH": "2025-12-19T18:22:05.044224", "MEAN_MOTION": 15.28148445, "ECCENTRICITY": 0.0007291, "INCLINATION": 97.2858, "RA_OF_ASC_NODE": 43.2573, "ARG_OF_PERICENTER": 64.3278, "MEAN_ANOMALY": 295.8714, "EPHEMERIS_TYPE": 0, "CLASSIFICATION_TYPE": "U", "NORAD_CAT_ID": 57400, "ELEMENT_SET_NO": 999, "REV_AT_EPOCH": 13422, "BSTAR": 0.00019195, "MEAN_MOTION_DOT": 5.197e-05, "MEAN_MOTION_DDOT": 0}, "tle": {"line1": "1 57400U 23101B   25353.76533616  .00005197  00000+0  19195-3 0  9997", "line2": "2 57400  97.2858  43.2573 0007291  64.3278 295.8714 15.28148445134220"}}, "geometry": {"type": "Point", "coordinates": [118.17851430679703, -82.44586976949233]}}]}